SWARM A                 
1 39452U 13067B   26155.12057678  .00011709  00000+0  20336-3 0  9999
2 39452  87.3332  61.0942 0003032  90.7575 269.4033 15.50680307704221
SWARM C                 
1 39453U 13067C   26155.12046970  .00011694  00000+0  20309-3 0  9996
2 39453  87.3332  59.6755 0003019  90.6572 269.5035 15.50682511704185
BRITE-CA1 (TORONTO)     
1 40020U 14033L   26154.31294975  .00000802  00000+0  12817-3 0  9996
2 40020  97.9723 283.4981 0077719 322.1342  37.4414 14.72656654640175
OCO 2                   
1 40059U 14035A   26155.10821705  .00000534  00000+0  12862-3 0  9997
2 40059  98.2015  96.6009 0001469  87.3371 272.7996 14.57100101634144
BRITE-PL2 (HEWELIUSZ)   
1 40119U 14049B   26154.31365131  .00002604  00000+0  24600-3 0  9990
2 40119  97.9084 266.2083 0014815 151.1613 209.0429 14.94537783639373
MMS 1                   
1 40482U 15011A   26155.25004630 -.00000395  00000+0  00000+0 0  9991
2 40482  71.9402 348.9698 8335408 167.0339  59.1983  0.28348207  1370
MMS 2                   
1 40483U 15011B   26155.16670139 -.00000398  00000+0  00000+0 0  9998
2 40483  71.9345 348.9762 8336092 167.0360  50.6922  0.28349811  1374
MMS 3                   
1 40484U 15011C   26155.16670139 -.00000398  00000+0  00000+0 0  9999
2 40484  71.9382 348.9805 8335327 167.0305  50.6882  0.28349710  1376
MMS 4                   
1 40485U 15011D   26155.25004630 -.00000395  00000+0  00000+0 0  9994
2 40485  71.9397 348.9722 8334973 167.0418  59.1716  0.28348186  1378
ASTROSAT                
1 40930U 15052A   26155.04032227  .00001809  00000+0  13844-3 0  9998
2 40930   5.9962 249.9966 0008232 211.3918 148.5718 14.82484264577875
DAMPE                   
1 41173U 15078A   26155.16002412  .00001296  00000+0  46119-4 0  9994
2 41173  97.4555 160.5633 0013472 117.6259 242.6351 15.30749703582552
PISAT                   
1 41784U 16059B   26154.99760220  .00001004  00000+0  17864-3 0  9991
2 41784  97.8177 156.0174 0027583 246.5558 113.2748 14.68959119517809
HXMT (HUIYAN)           
1 42758U 17034A   26155.17554846  .00005289  00000+0  26125-3 0  9992
2 42758  43.0142 255.4896 0030276  61.1678 299.2204 15.18372432495684
FLYING LAPTOP           
1 42831U 17042G   26155.18690075  .00003346  00000+0  26533-3 0  9994
2 42831  97.4640 311.2247 0018771 164.3278 195.8532 15.01054596484505
ZHANGHENG 1-01 (CSES-1) 
1 43194U 18015C   26155.17644924  .00007049  00000+0  32331-3 0  9996
2 43194  97.6864 320.5780 0017338 315.2003  44.7831 15.20637277462665
SALSAT                  
1 46495U 20068K   26154.99736176  .00008555  00000+0  30076-3 0  9991
2 46495  97.8850 157.2614 0009364 359.9507   0.1729 15.29597840313346
IXPE                    
1 49954U 21121A   26155.16670139  .00012648  00000+0  69674-3 0  9995
2 49954   0.2311  55.3198 0007417 240.6750   9.4690 15.10129695  5567
SMILE                   
1 69123U 26109A   26144.65318427 -.00001976  00000+0 -42379-3 0  9994
2 69123  70.0007 229.2745 0009123 259.5159 100.4951 14.57062785   802
