OBJECT_NAME,OBJECT_ID,EPOCH,MEAN_MOTION,ECCENTRICITY,INCLINATION,RA_OF_ASC_NODE,ARG_OF_PERICENTER,MEAN_ANOMALY,EPHEMERIS_TYPE,CLASSIFICATION_TYPE,NORAD_CAT_ID,ELEMENT_SET_NO,REV_AT_EPOCH,BSTAR,MEAN_MOTION_DOT,MEAN_MOTION_DDOT
SWARM A,2013-067B,2026-06-04T02:53:37.833792,15.50680307,.0003032,87.3332,61.0942,90.7575,269.4033,0,U,39452,999,70422,.20336E-3,.11709E-3,0
SWARM C,2013-067C,2026-06-04T02:53:28.582080,15.50682511,.0003019,87.3332,59.6755,90.6572,269.5035,0,U,39453,999,70418,.20309E-3,.11694E-3,0
BRITE-CA1 (TORONTO),2014-033L,2026-06-03T07:30:38.858400,14.72656654,.00777195,97.9723,283.4981,322.1342,37.4414,0,U,40020,999,64017,.12817401E-3,.802E-5,0
OCO 2,2014-035A,2026-06-04T02:35:49.953120,14.57100101,.0001469,98.2015,96.6009,87.3371,272.7996,0,U,40059,999,63414,.12862E-3,.534E-5,0
BRITE-PL2 (HEWELIUSZ),2014-049B,2026-06-03T07:31:39.473184,14.94537783,.00148153,97.9084,266.2083,151.1613,209.0429,0,U,40119,999,63937,.2460017E-3,.2604E-4,0
MMS 1,2015-011A,2026-06-04T06:00:04.000320,0.28348207,.8335408,71.9402,348.9698,167.0339,59.1983,0,U,40482,999,137,0,-.395E-5,0
MMS 2,2015-011B,2026-06-04T04:00:03.000096,0.28349811,.8336092,71.9345,348.9762,167.0360,50.6922,0,U,40483,999,137,0,-.398E-5,0
MMS 3,2015-011C,2026-06-04T04:00:03.000096,0.28349710,.8335327,71.9382,348.9805,167.0305,50.6882,0,U,40484,999,137,0,-.398E-5,0
MMS 4,2015-011D,2026-06-04T06:00:04.000320,0.28348186,.8334973,71.9397,348.9722,167.0418,59.1716,0,U,40485,999,137,0,-.395E-5,0
ASTROSAT,2015-052A,2026-06-04T00:58:03.844128,14.82484264,.0008232,5.9962,249.9966,211.3918,148.5718,0,U,40930,999,57787,.13844E-3,.1809E-4,0
DAMPE,2015-078A,2026-06-04T03:50:26.083968,15.30749703,.0013472,97.4555,160.5633,117.6259,242.6351,0,U,41173,999,58255,.46119E-4,.1296E-4,0
PISAT,2016-059B,2026-06-03T23:56:32.830080,14.68959119,.0027583,97.8177,156.0174,246.5558,113.2748,0,U,41784,999,51780,.17864E-3,.1004E-4,0
HXMT (HUIYAN),2017-034A,2026-06-04T04:12:47.386944,15.18372432,.0030276,43.0142,255.4896,61.1678,299.2204,0,U,42758,999,49568,.26125E-3,.5289E-4,0
FLYING LAPTOP,2017-042G,2026-06-04T04:29:08.224800,15.01054596,.0018771,97.4640,311.2247,164.3278,195.8532,0,U,42831,999,48450,.26533E-3,.3346E-4,0
ZHANGHENG 1-01 (CSES-1),2018-015C,2026-06-04T04:14:05.214336,15.20637277,.0017338,97.6864,320.5780,315.2003,44.7831,0,U,43194,999,46266,.32331E-3,.7049E-4,0
SALSAT,2020-068K,2026-06-03T23:56:12.056064,15.29597840,.0009364,97.8850,157.2614,359.9507,0.1729,0,U,46495,999,31334,.30076E-3,.8555E-4,0
IXPE,2021-121A,2026-06-04T04:00:03.000096,15.10129695,.0007417,0.2311,55.3198,240.6750,9.4690,0,U,49954,999,556,.69674E-3,.12648E-3,0
SMILE,2026-109A,2026-05-24T15:40:35.120928,14.57062785,.00091232,70.0007,229.2745,259.5159,100.4951,0,U,69123,999,80,-.42378883E-3,-.1976E-4,0
